{
  "norad_id": 63894,
  "name": "STARLINK-33973",
  "history": [
    {
      "epoch": "2026-03-28T15:48:24.247008",
      "apogee_km": 484.28058060650255,
      "perigee_km": 481.6460553064135,
      "latitude_deg": 1.4811635617664598,
      "longitude_deg": -87.37305887998082,
      "semi_major_axis_km": 6861.100317956458,
      "eccentricity": 0.00019199,
      "inclination_deg": 43.0075,
      "raan_deg": 68.6785,
      "arg_perigee_deg": 275.5464,
      "mean_anomaly_deg": 84.5169,
      "mean_motion_rev_day": 15.27608647
    }
  ]
}