{"fetched_at":"2026-03-29T16:36:15Z","count":15609,"tles":[{"name":"STARLINK-33973","line1":"1 63894U 25095E   26087.65861397  .00037555  00000+0  13661-2 0  9992","line2":"2 63894  43.0075  68.6785 0001919 275.5464  84.5169 15.27608647 50693","category":"Starlink"}]}